{
  "type": "FeatureCollection",
  "features": [
    {
      "type": "Feature",
      "properties": {
        "norad_id": 39766,
        "name": "ALOS-2",
        "group": "resource",
        "lat": 4.111450708234094,
        "lon": -106.87166517910491,
        "alt_km": 633.1360461942113,
        "timestamp": "2025-12-03T13:52:09.222309+00:00",
        "meta_object_name": "ALOS-2",
        "meta_object_id": "2014-029A",
        "meta_epoch": "2025-12-03T08:12:28.623744",
        "meta_mean_motion": 14.79451134,
        "meta_eccentricity": 0.00015393,
        "meta_inclination": 97.9237,
        "meta_ra_of_asc_node": 72.3222,
        "meta_arg_of_pericenter": 107.1227,
        "meta_mean_anomaly": 253.0153,
        "meta_ephemeris_type": 0,
        "meta_classification_type": "U",
        "meta_norad_cat_id": 39766,
        "meta_element_set_no": 999,
        "meta_rev_at_epoch": 62262,
        "meta_bstar": 0.00074217202,
        "meta_mean_motion_dot": 5.493e-05,
        "meta_mean_motion_ddot": 0,
        "tle_line1": "1 39766U 14029A   25337.34199796  .00005493  00000+0  74217-3 0  9999",
        "tle_line2": "2 39766  97.9237  72.3222 0001539 107.1227 253.0153 14.79451134622622"
      },
      "geometry": {
        "type": "Point",
        "coordinates": [
          -106.87166517910491,
          4.111450708234094
        ]
      }
    },
    {
      "type": "Feature",
      "properties": {
        "norad_id": 40010,
        "name": "KAZEOSAT 2",
        "group": "resource",
        "lat": -76.33845927288964,
        "lon": -30.710410137207123,
        "alt_km": 615.6491504543064,
        "timestamp": "2025-12-03T13:52:09.222320+00:00",
        "meta_object_name": "KAZEOSAT 2",
        "meta_object_id": "2014-033A",
        "meta_epoch": "2025-12-03T07:51:25.861824",
        "meta_mean_motion": 14.85142816,
        "meta_eccentricity": 0.00072377,
        "meta_inclination": 97.5511,
        "meta_ra_of_asc_node": 182.1275,
        "meta_arg_of_pericenter": 241.9712,
        "meta_mean_anomaly": 118.0772,
        "meta_ephemeris_type": 0,
        "meta_classification_type": "U",
        "meta_norad_cat_id": 40010,
        "meta_element_set_no": 999,
        "meta_rev_at_epoch": 61988,
        "meta_bstar": 0.00014358139,
        "meta_mean_motion_dot": 1.179e-05,
        "meta_mean_motion_ddot": 0,
        "tle_line1": "1 40010U 14033A   25337.32738266  .00001179  00000+0  14358-3 0  9994",
        "tle_line2": "2 40010  97.5511 182.1275 0007237 241.9712 118.0772 14.85142816619884"
      },
      "geometry": {
        "type": "Point",
        "coordinates": [
          -30.710410137207123,
          -76.33845927288964
        ]
      }
    },
    {
      "type": "Feature",
      "properties": {
        "norad_id": 40011,
        "name": "HODOYOSHI-4",
        "group": "resource",
        "lat": -82.41724300179935,
        "lon": -108.72069025510503,
        "alt_km": 600.9753980640917,
        "timestamp": "2025-12-03T13:52:09.222331+00:00",
        "meta_object_name": "HODOYOSHI-4",
        "meta_object_id": "2014-033B",
        "meta_epoch": "2025-12-03T07:48:42.350688",
        "meta_mean_motion": 14.87424302,
        "meta_eccentricity": 0.00226585,
        "meta_inclination": 97.5415,
        "meta_ra_of_asc_node": 166.6733,
        "meta_arg_of_pericenter": 232.9309,
        "meta_mean_anomaly": 126.9837,
        "meta_ephemeris_type": 0,
        "meta_classification_type": "U",
        "meta_norad_cat_id": 40011,
        "meta_element_set_no": 999,
        "meta_rev_at_epoch": 61968,
        "meta_bstar": 0.00030120796,
        "meta_mean_motion_dot": 2.686e-05,
        "meta_mean_motion_ddot": 0,
        "tle_line1": "1 40011U 14033B   25337.32549017  .00002686  00000+0  30121-3 0  9999",
        "tle_line2": "2 40011  97.5415 166.6733 0022658 232.9309 126.9837 14.87424302619683"
      },
      "geometry": {
        "type": "Point",
        "coordinates": [
          -108.72069025510503,
          -82.41724300179935
        ]
      }
    },
    {
      "type": "Feature",
      "properties": {
        "norad_id": 40013,
        "name": "DEIMOS-2",
        "group": "resource",
        "lat": -65.9571213069774,
        "lon": 16.247555439781234,
        "alt_km": 596.66000525033,
        "timestamp": "2025-12-03T13:52:09.222341+00:00",
        "meta_object_name": "DEIMOS-2",
        "meta_object_id": "2014-033D",
        "meta_epoch": "2025-12-03T07:56:24.000576",
        "meta_mean_motion": 14.9290178,
        "meta_eccentricity": 7.874e-05,
        "meta_inclination": 97.6072,
        "meta_ra_of_asc_node": 213.4407,
        "meta_arg_of_pericenter": 85.9783,
        "meta_mean_anomaly": 274.1527,
        "meta_ephemeris_type": 0,
        "meta_classification_type": "U",
        "meta_norad_cat_id": 40013,
        "meta_element_set_no": 999,
        "meta_rev_at_epoch": 60849,
        "meta_bstar": 0.00035091313,
        "meta_mean_motion_dot": 3.584e-05,
        "meta_mean_motion_ddot": 0,
        "tle_line1": "1 40013U 14033D   25337.33083334  .00003584  00000+0  35091-3 0  9996",
        "tle_line2": "2 40013  97.6072 213.4407 0000787  85.9783 274.1527 14.92901780608490"
      },
      "geometry": {
        "type": "Point",
        "coordinates": [
          16.247555439781234,
          -65.9571213069774
        ]
      }
    },
    {
      "type": "Feature",
      "properties": {
        "norad_id": 40015,
        "name": "HODOYOSHI-3",
        "group": "resource",
        "lat": -74.12837328361486,
        "lon": 171.8982041174817,
        "alt_km": 599.488739261642,
        "timestamp": "2025-12-03T13:52:09.222352+00:00",
        "meta_object_name": "HODOYOSHI-3",
        "meta_object_id": "2014-033F",
        "meta_epoch": "2025-12-03T04:30:18.782496",
        "meta_mean_motion": 14.84751983,
        "meta_eccentricity": 0.00318393,
        "meta_inclination": 97.6193,
        "meta_ra_of_asc_node": 143.4383,
        "meta_arg_of_pericenter": 280.6559,
        "meta_mean_anomaly": 79.1071,
        "meta_ephemeris_type": 0,
        "meta_classification_type": "U",
        "meta_norad_cat_id": 40015,
        "meta_element_set_no": 999,
        "meta_rev_at_epoch": 61853,
        "meta_bstar": 0.00031270815,
        "meta_mean_motion_dot": 2.622e-05,
        "meta_mean_motion_ddot": 0,
        "tle_line1": "1 40015U 14033F   25337.18771739  .00002622  00000+0  31271-3 0  9992",
        "tle_line2": "2 40015  97.6193 143.4383 0031839 280.6559  79.1071 14.84751983618530"
      },
      "geometry": {
        "type": "Point",
        "coordinates": [
          171.8982041174817,
          -74.12837328361486
        ]
      }
    },
    {
      "type": "Feature",
      "properties": {
        "norad_id": 40053,
        "name": "SPOT 7",
        "group": "resource",
        "lat": 76.09465825107988,
        "lon": 4.788234491420814,
        "alt_km": 682.641086876698,
        "timestamp": "2025-12-03T13:52:09.222362+00:00",
        "meta_object_name": "SPOT 7",
        "meta_object_id": "2014-034A",
        "meta_epoch": "2025-12-03T08:34:42.594816",
        "meta_mean_motion": 14.60714072,
        "meta_eccentricity": 0.00015191,
        "meta_inclination": 98.0919,
        "meta_ra_of_asc_node": 39.6487,
        "meta_arg_of_pericenter": 97.0482,
        "meta_mean_anomaly": 263.0892,
        "meta_ephemeris_type": 0,
        "meta_classification_type": "U",
        "meta_norad_cat_id": 40053,
        "meta_element_set_no": 999,
        "meta_rev_at_epoch": 60854,
        "meta_bstar": 0.00019407192,
        "meta_mean_motion_dot": 9e-06,
        "meta_mean_motion_ddot": 0,
        "tle_line1": "1 40053U 14034A   25337.35743744  .00000900  00000+0  19407-3 0  9993",
        "tle_line2": "2 40053  98.0919  39.6487 0001519  97.0482 263.0892 14.60714072608548"
      },
      "geometry": {
        "type": "Point",
        "coordinates": [
          4.788234491420814,
          76.09465825107988
        ]
      }
    },
    {
      "type": "Feature",
      "properties": {
        "norad_id": 40072,
        "name": "SKYSAT-B",
        "group": "resource",
        "lat": -37.80562909522979,
        "lon": 94.2505307934612,
        "alt_km": 609.9986727527466,
        "timestamp": "2025-12-03T13:52:09.222372+00:00",
        "meta_object_name": "SKYSAT-B",
        "meta_object_id": "2014-037D",
        "meta_epoch": "2025-12-03T06:25:57.587232",
        "meta_mean_motion": 14.87268522,
        "meta_eccentricity": 0.00053785,
        "meta_inclination": 98.3593,
        "meta_ra_of_asc_node": 280.475,
        "meta_arg_of_pericenter": 179.4829,
        "meta_mean_anomaly": 180.6392,
        "meta_ephemeris_type": 0,
        "meta_classification_type": "U",
        "meta_norad_cat_id": 40072,
        "meta_element_set_no": 999,
        "meta_rev_at_epoch": 61683,
        "meta_bstar": 0.00034601113,
        "meta_mean_motion_dot": 3.059e-05,
        "meta_mean_motion_ddot": 0,
        "tle_line1": "1 40072U 14037D   25337.26802763  .00003059  00000+0  34601-3 0  9995",
        "tle_line2": "2 40072  98.3593 280.4750 0005378 179.4829 180.6392 14.87268522616839"
      },
      "geometry": {
        "type": "Point",
        "coordinates": [
          94.2505307934612,
          -37.80562909522979
        ]
      }
    }
  ]
}